H1 CPF 01  gfz 2022 03 10 01  5691 tandemx   
H2 1003001  6202 36605    2022 03 10 00 59 42 2022 03 15 00 00 42   120 1 1  0 0 0
H9
10 0 59649  82782.000000  0     -61963.896  -2852749.440   6258983.300
10 0 59649  82902.000000  0    -346727.228  -2031354.388   6562087.504
10 0 59649  83022.000000  0    -610711.070  -1169704.981   6749856.203
10 0 59649  83142.000000  0    -848740.868   -283251.502   6819008.774
10 0 59649  83262.000000  0   -1056369.918    612044.171   6768337.099
10 0 59649  83382.000000  0   -1229961.970   1499995.985   6598725.077
10 0 59649  83502.000000  0   -1366754.617   2364485.674   6313134.012
10 0 59649  83622.000000  0   -1464903.393   3189755.275   5916554.269
10 0 59649  83742.000000  0   -1523505.798   3960695.854   5415922.832
10 0 59649  83862.000000  0   -1542603.933   4663127.498   4820008.362
10 0 59649  83982.000000  0   -1523167.112   5284067.014   4139263.601
10 0 59649  84102.000000  0   -1467053.234   5811976.130   3385645.556
10 0 59649  84222.000000  0   -1376951.243   6236984.798   2572407.761
10 0 59649  84342.000000  0   -1256305.651   6551086.158   1713865.937
10 0 59649  84462.000000  0   -1109221.596   6748296.092    825141.095
10 0 59649  84582.000000  0    -940355.615   6824772.669    -78113.105
10 0 59649  84702.000000  0    -754794.388   6778895.070   -979994.025
10 0 59649  84822.000000  0    -557923.832   6611296.463  -1864641.262
10 0 59649  84942.000000  0    -355293.159   6324848.157  -2716524.430
10 0 59649  85062.000000  0    -152477.913   5924600.127  -3520720.044
10 0 59649  85182.000000  0      45055.614   5417680.901  -4263174.428
10 0 59649  85302.000000  0     232081.540   4813158.402  -4930947.998
10 0 59649  85422.000000  0     403737.800   4121865.721  -5512435.709
10 0 59649  85542.000000  0     555639.023   3356196.494  -5997560.898
10 0 59649  85662.000000  0     683975.929   2529874.281  -6377939.493
10 0 59649  85782.000000  0     785600.002   1657702.378  -6647012.961
10 0 59649  85902.000000  0     858092.244    755299.100  -6800150.430
10 0 59649  86022.000000  0     899814.476   -161178.543  -6834720.146
10 0 59649  86142.000000  0     909943.048  -1075318.850  -6750129.498
10 0 59649  86262.000000  0     888483.956  -1970741.931  -6547832.214
10 0 59649  86382.000000  0     836270.167  -2831384.218  -6231306.205
10 0 59650    102.000000  0     754940.811  -3641781.540  -5806002.930
10 0 59650    222.000000  0     646901.275  -4387345.990  -5279262.480
10 0 59650    342.000000  0     515266.816  -5054629.055  -4660197.551
10 0 59650    462.000000  0     363789.025  -5631569.471  -3959547.784
10 0 59650    582.000000  0     196766.441  -6107720.442  -3189503.162
10 0 59650    702.000000  0      18941.223  -6474449.753  -2363499.211
10 0 59650    822.000000  0    -164615.950  -6725109.716  -1495986.953
10 0 59650    942.000000  0    -348630.541  -6855170.750   -602179.228
10 0 59650   1062.000000  0    -527755.226  -6862313.617    302220.263
10 0 59650   1182.000000  0    -696704.154  -6746478.333   1201299.046
10 0 59650   1302.000000  0    -850387.177  -6509868.896   2079224.165
10 0 59650   1422.000000  0    -984040.381  -6156911.610   2920530.662
10 0 59650   1542.000000  0   -1093348.629  -5694168.011   3710403.184
10 0 59650   1662.000000  0   -1174557.361  -5130204.133   4434942.658
10 0 59650   1782.000000  0   -1224572.193  -4475422.491   5081412.678
10 0 59650   1902.000000  0   -1241042.433  -3741861.519   5638463.812
10 0 59650   2022.000000  0   -1222427.866  -2942964.045   6096331.582
10 0 59650   2142.000000  0   -1168045.900  -2093321.574   6447001.511
10 0 59650   2262.000000  0   -1078099.046  -1208403.572   6684342.193
10 0 59650   2382.000000  0    -953683.620   -304273.414   6804207.623
10 0 59650   2502.000000  0    -796779.126    602704.414   6804504.970
10 0 59650   2622.000000  0    -610216.870   1496160.055   6685229.252
10 0 59650   2742.000000  0    -397628.562   2360013.512   6448463.458
10 0 59650   2862.000000  0    -163376.247   3178763.898   6098344.236
10 0 59650   2982.000000  0      87534.908   3937768.714   5640994.143
10 0 59650   3102.000000  0     349559.721   4623509.180   5084419.926
10 0 59650   3222.000000  0     616731.284   5223836.873   4438378.900
10 0 59650   3342.000000  0     882791.165   5728197.224   3714211.340
10 0 59650   3462.000000  0    1141327.939   6127821.982   2924646.469
10 0 59650   3582.000000  0    1385926.082   6415897.007   2083580.296
10 0 59650   3702.000000  0    1610315.413   6587685.432   1205824.138
10 0 59650   3822.000000  0    1808520.304   6640611.424    306837.886
10 0 59650   3942.000000  0    1975004.496   6574299.412   -597550.421
10 0 59650   4062.000000  0    2104807.173   6390569.618  -1491431.288
10 0 59650   4182.000000  0    2193667.698   6093390.324  -2359101.149
10 0 59650   4302.000000  0    2238135.811   5688787.875  -3185344.847
10 0 59650   4422.000000  0    2235664.473   5184716.298  -3955707.213
10 0 59650   4542.000000  0    2184682.858   4590889.563  -4656746.890
10 0 59650   4662.000000  0    2084647.781   3918583.022  -5276266.943
10 0 59650   4782.000000  0    1936073.715   3180409.999  -5803519.406
10 0 59650   4902.000000  0    1740540.741   2390078.231  -6229382.435
10 0 59650   5022.000000  0    1500680.270   1562131.129  -6546506.364
10 0 59650   5142.000000  0    1220140.609    711680.731  -6749428.958
10 0 59650   5262.000000  0     903531.615   -145864.993  -6834660.608
10 0 59650   5382.000000  0     556348.992   -995076.393  -6800737.322
10 0 59650   5502.000000  0     184880.523  -1820772.878  -6648241.436
10 0 59650   5622.000000  0    -203904.115  -2608285.904  -6379792.800
10 0 59650   5742.000000  0    -602480.430  -3343714.778  -6000010.705
10 0 59650   5862.000000  0   -1002910.321  -4014169.823  -5515441.942
10 0 59650   5982.000000  0   -1396995.009  -4607998.531  -4934459.255
10 0 59650   6102.000000  0   -1776438.617  -5114993.166  -4267128.709
10 0 59650   6222.000000  0   -2133019.300  -5526574.307  -3525045.727
10 0 59650   6342.000000  0   -2458764.049  -5835945.821  -2721141.978
10 0 59650   6462.000000  0   -2746123.434  -6038218.145  -1869465.859
10 0 59650   6582.000000  0   -2988142.584  -6130496.964   -984938.977
10 0 59650   6702.000000  0   -3178623.982  -6111933.327    -83091.840
10 0 59650   6822.000000  0   -3312276.903  -5983732.098    820215.156
10 0 59650   6942.000000  0   -3384849.835  -5749119.134   1709078.785
10 0 59650   7062.000000  0   -3393242.408  -5413267.167   2567842.459
10 0 59650   7182.000000  0   -3335593.457  -4983182.095   3381380.443
10 0 59650   7302.000000  0   -3211343.310  -4467553.808   4135370.996
10 0 59650   7422.000000  0   -3021268.981  -3876574.839   4816553.018
10 0 59650   7542.000000  0   -2767491.870  -3221731.244   5412960.511
10 0 59650   7662.000000  0   -2453457.243  -2515571.987   5914131.021
10 0 59650   7782.000000  0   -2083886.717  -1771463.010   6311284.832
10 0 59650   7902.000000  0   -1664705.060  -1003330.456   6597474.818
10 0 59650   8022.000000  0   -1202941.669   -225395.681   6767702.085
10 0 59650   8142.000000  0    -706611.498    548088.496   6818995.411
10 0 59650   8262.000000  0    -184576.321   1303097.639   6750460.638
10 0 59650   8382.000000  0     353613.462   2026089.864   6563295.728
10 0 59650   8502.000000  0     897893.427   2704248.822   6260770.771
10 0 59650   8622.000000  0    1437872.517   3325710.874   5848174.088
10 0 59650   8742.000000  0    1963030.467   3879775.134   5332725.549
10 0 59650   8862.000000  0    2462922.881   4357092.546   4723456.583
10 0 59650   8982.000000  0    2927390.677   4749829.626   4031056.642
10 0 59650   9102.000000  0    3346767.135   5051802.276   3267689.551
10 0 59650   9222.000000  0    3712081.520   5258581.371   2446783.711
10 0 59650   9342.000000  0    4015254.393   5367563.144   1582791.283
10 0 59650   9462.000000  0    4249274.186   5378000.121    690929.476
10 0 59650   9582.000000  0    4408356.090   5290998.504   -213095.077
10 0 59650   9702.000000  0    4488076.036   5109473.637  -1113372.446
10 0 59650   9822.000000  0    4485478.562   4838070.108  -1994076.898
10 0 59650   9942.000000  0    4399154.509   4483048.148  -2839752.329
10 0 59650  10062.000000  0    4229287.079   4052139.113  -3635589.128
10 0 59650  10182.000000  0    3977664.389   3554373.110  -4367685.620
10 0 59650  10302.000000  0    3647660.981   2999884.827  -5023288.334
10 0 59650  10422.000000  0    3244188.440   2399702.583  -5591009.008
10 0 59650  10542.000000  0    2773616.130   1765525.473  -6061014.005
10 0 59650  10662.000000  0    2243665.120   1109493.368  -6425183.716
10 0 59650  10782.000000  0    1663277.616    443955.454  -6677240.299
10 0 59650  10902.000000  0    1042466.248   -218758.282  -6812845.268
10 0 59650  11022.000000  0     392142.251   -866561.190  -6829667.571
10 0 59650  11142.000000  0    -276073.346  -1487825.185  -6727417.351
10 0 59650  11262.000000  0    -950051.433  -2071583.071  -6507850.157
10 0 59650  11382.000000  0   -1617369.690  -2607718.084  -6174741.393
10 0 59650  11502.000000  0   -2265536.228  -3087137.262  -5733827.846
10 0 59650  11622.000000  0   -2882218.654  -3501925.357  -5192719.457
10 0 59650  11742.000000  0   -3455477.568  -3845479.088  -4560780.608
10 0 59650  11862.000000  0   -3973999.154  -4112617.340  -3848978.618
10 0 59650  11982.000000  0   -4427321.231  -4299664.775  -3069703.029
10 0 59650  12102.000000  0   -4806049.281  -4404507.465  -2236556.802
10 0 59650  12222.000000  0   -5102056.464  -4426617.871  -1364121.829
10 0 59650  12342.000000  0   -5308662.602  -4367048.325   -467703.166
10 0 59650  12462.000000  0   -5420787.453  -4228392.812    436943.357
10 0 59650  12582.000000  0   -5435073.789  -4014717.496   1333895.648
10 0 59650  12702.000000  0   -5349975.459  -3731460.189   2207355.488
10 0 59650  12822.000000  0   -5165808.369  -3385301.426   3041935.929
99
